{
    "links": {
        "self": "http://www.neowsapp.com/rest/v1/neo/3786446?api_key=iIulBulltgU6a56xZRHN4H3l9WmuAYTsLGpBGhQ2"
    },
    "id": "3786446",
    "neo_reference_id": "3786446",
    "name": "(2017 TF6)",
    "designation": "2017 TF6",
    "nasa_jpl_url": "http://ssd.jpl.nasa.gov/sbdb.cgi?sstr=3786446",
    "absolute_magnitude_h": 25.8,
    "estimated_diameter": {
        "kilometers": {
            "estimated_diameter_min": 0.0183888672,
            "estimated_diameter_max": 0.0411187571
        },
        "meters": {
            "estimated_diameter_min": 18.388867207,
            "estimated_diameter_max": 41.1187571041
        },
        "miles": {
            "estimated_diameter_min": 0.0114263088,
            "estimated_diameter_max": 0.0255500032
        },
        "feet": {
            "estimated_diameter_min": 60.3309310875,
            "estimated_diameter_max": 134.9040630575
        }
    },
    "is_potentially_hazardous_asteroid": false,
    "close_approach_data": [
        {
            "close_approach_date": "2017-10-08",
            "close_approach_date_full": "2017-Oct-08 07:29",
            "epoch_date_close_approach": 1507447740000,
            "relative_velocity": {
                "kilometers_per_second": "14.5957883924",
                "kilometers_per_hour": "52544.8382125414",
                "miles_per_hour": "32649.3190548983"
            },
            "miss_distance": {
                "astronomical": "0.057102955",
                "lunar": "22.213049495",
                "kilometers": "8542480.43870585",
                "miles": "5308051.20700673"
            },
            "orbiting_body": "Earth"
        }
    ],
    "orbital_data": {
        "orbit_id": "2",
        "orbit_determination_date": "2019-07-17 06:12:22",
        "first_observation_date": "2017-10-14",
        "last_observation_date": "2017-10-18",
        "data_arc_in_days": 4,
        "observations_used": 17,
        "orbit_uncertainty": "9",
        "minimum_orbit_intersection": ".0505658",
        "jupiter_tisserand_invariant": "3.875",
        "epoch_osculation": "2458043.5",
        "eccentricity": ".5201263835343742",
        "semi_major_axis": "1.79957795084318",
        "inclination": "11.78360773873106",
        "ascending_node_longitude": "205.2987321476647",
        "orbital_period": "881.7681787049329",
        "perihelion_distance": ".8635699793829168",
        "perihelion_argument": "110.4480607381887",
        "aphelion_distance": "2.735585922303443",
        "perihelion_time": "2457991.974260272910",
        "mean_anomaly": "21.03644330757774",
        "mean_motion": ".408270573484221",
        "equinox": "J2000",
        "orbit_class": {
            "orbit_class_type": "APO",
            "orbit_class_description": "Near-Earth asteroid orbits which cross the Earth’s orbit similar to that of 1862 Apollo",
            "orbit_class_range": "a (semi-major axis) > 1.0 AU; q (perihelion) < 1.017 AU"
        }
    },
    "is_sentry_object": false
}